[{"OBJECT_NAME":"FENGYUN 1C DEB","OBJECT_ID":"1999-025ABG","EPOCH":"2026-03-14T03:46:48.068256","MEAN_MOTION":14.42996601,"ECCENTRICITY":0.00140365,"INCLINATION":98.9118,"RA_OF_ASC_NODE":141.6332,"ARG_OF_PERICENTER":335.4696,"MEAN_ANOMALY":24.5824,"EPHEMERIS_TYPE":0,"CLASSIFICATION_TYPE":"U","NORAD_CAT_ID":30345,"ELEMENT_SET_NO":999,"REV_AT_EPOCH":99091,"BSTAR":0.0018530328,"MEAN_MOTION_DOT":6.169e-5,"MEAN_MOTION_DDOT":0},{"OBJECT_NAME":"FENGYUN 1C DEB","OBJECT_ID":"1999-025ABH","EPOCH":"2026-03-14T12:21:11.329344","MEAN_MOTION":14.3519394,"ECCENTRICITY":0.0056999,"INCLINATION":98.802,"RA_OF_ASC_NODE":176.9669,"ARG_OF_PERICENTER":115.3813,"MEAN_ANOMALY":306.2959,"EPHEMERIS_TYPE":0,"CLASSIFICATION_TYPE":"U","NORAD_CAT_ID":30346,"ELEMENT_SET_NO":999,"REV_AT_EPOCH":98729,"BSTAR":0.0025297513,"MEAN_MOTION_DOT":7.329e-5,"MEAN_MOTION_DDOT":0},{"OBJECT_NAME":"FENGYUN 1C DEB","OBJECT_ID":"1999-025ABJ","EPOCH":"2026-03-14T10:46:23.689056","MEAN_MOTION":13.92827391,"ECCENTRICITY":0.0150797,"INCLINATION":98.3838,"RA_OF_ASC_NODE":253.7091,"ARG_OF_PERICENTER":138.1409,"MEAN_ANOMALY":252.443,"EPHEMERIS_TYPE":0,"CLASSIFICATION_TYPE":"U","NORAD_CAT_ID":30347,"ELEMENT_SET_NO":999,"REV_AT_EPOCH":97237,"BSTAR":0.00024131909,"MEAN_MOTION_DOT":3.06e-6,"MEAN_MOTION_DDOT":0},{"OBJECT_NAME":"FENGYUN 1C DEB","OBJECT_ID":"1999-025ABK","EPOCH":"2026-03-13T18:36:37.550304","MEAN_MOTION":14.36205726,"ECCENTRICITY":0.00201142,"INCLINATION":98.8566,"RA_OF_ASC_NODE":175.0071,"ARG_OF_PERICENTER":111.1511,"MEAN_ANOMALY":41.8717,"EPHEMERIS_TYPE":0,"CLASSIFICATION_TYPE":"U","NORAD_CAT_ID":30348,"ELEMENT_SET_NO":999,"REV_AT_EPOCH":98840,"BSTAR":0.0018826828,"MEAN_MOTION_DOT":5.463e-5,"MEAN_MOTION_DDOT":0},{"OBJECT_NAME":"FENGYUN 1C DEB","OBJECT_ID":"1999-025ABL","EPOCH":"2026-03-14T08:13:00.577056","MEAN_MOTION":14.11818705,"ECCENTRICITY":0.00881063,"INCLINATION":98.5916,"RA_OF_ASC_NODE":36.8598,"ARG_OF_PERICENTER":109.8981,"MEAN_ANOMALY":24.2765,"EPHEMERIS_TYPE":0,"CLASSIFICATION_TYPE":"U","NORAD_CAT_ID":30349,"ELEMENT_SET_NO":999,"REV_AT_EPOCH":97523,"BSTAR":0.0019922637,"MEAN_MOTION_DOT":3.73e-5,"MEAN_MOTION_DDOT":0},{"OBJECT_NAME":"FENGYUN 1C DEB","OBJECT_ID":"1999-025ABM","EPOCH":"2026-03-14T09:58:48.048960","MEAN_MOTION":13.83055412,"ECCENTRICITY":0.02191811,"INCLINATION":98.1024,"RA_OF_ASC_NODE":244.1069,"ARG_OF_PERICENTER":56.1753,"MEAN_ANOMALY":334.8732,"EPHEMERIS_TYPE":0,"CLASSIFICATION_TYPE":"U","NORAD_CAT_ID":30350,"ELEMENT_SET_NO":999,"REV_AT_EPOCH":96249,"BSTAR":0.00068584312,"MEAN_MOTION_DOT":8.68e-6,"MEAN_MOTION_DDOT":0},{"OBJECT_NAME":"FENGYUN 1C DEB","OBJECT_ID":"1999-025ABP","EPOCH":"2026-03-14T13:23:32.120160","MEAN_MOTION":14.07658822,"ECCENTRICITY":0.00294058,"INCLINATION":98.7579,"RA_OF_ASC_NODE":96.8804,"ARG_OF_PERICENTER":60.6087,"MEAN_ANOMALY":103.1147,"EPHEMERIS_TYPE":0,"CLASSIFICATION_TYPE":"U","NORAD_CAT_ID":30352,"ELEMENT_SET_NO":999,"REV_AT_EPOCH":98202,"BSTAR":0.00013793436,"MEAN_MOTION_DOT":1.91e-6,"MEAN_MOTION_DDOT":0},{"OBJECT_NAME":"FENGYUN 1C DEB","OBJECT_ID":"1999-025ABS","EPOCH":"2026-03-14T06:59:33.166176","MEAN_MOTION":14.19112234,"ECCENTRICITY":0.00544874,"INCLINATION":98.5911,"RA_OF_ASC_NODE":79.8125,"ARG_OF_PERICENTER":45.7645,"MEAN_ANOMALY":330.1177,"EPHEMERIS_TYPE":0,"CLASSIFICATION_TYPE":"U","NORAD_CAT_ID":30355,"ELEMENT_SET_NO":999,"REV_AT_EPOCH":98649,"BSTAR":0.00079757484,"MEAN_MOTION_DOT":1.651e-5,"MEAN_MOTION_DDOT":0},{"OBJECT_NAME":"FENGYUN 1C DEB","OBJECT_ID":"1999-025ABT","EPOCH":"2026-03-14T10:47:17.287296","MEAN_MOTION":14.13309117,"ECCENTRICITY":0.00530967,"INCLINATION":98.6879,"RA_OF_ASC_NODE":70.9741,"ARG_OF_PERICENTER":28.5757,"MEAN_ANOMALY":125.6329,"EPHEMERIS_TYPE":0,"CLASSIFICATION_TYPE":"U","NORAD_CAT_ID":30356,"ELEMENT_SET_NO":999,"REV_AT_EPOCH":98316,"BSTAR":0.00084370103,"MEAN_MOTION_DOT":1.561e-5,"MEAN_MOTION_DDOT":0},{"OBJECT_NAME":"FENGYUN 1C DEB","OBJECT_ID":"1999-025ABU","EPOCH":"2026-03-14T13:41:12.400224","MEAN_MOTION":14.05311422,"ECCENTRICITY":0.00504815,"INCLINATION":98.7963,"RA_OF_ASC_NODE":103.1299,"ARG_OF_PERICENTER":72.2316,"MEAN_ANOMALY":80.8069,"EPHEMERIS_TYPE":0,"CLASSIFICATION_TYPE":"U","NORAD_CAT_ID":30357,"ELEMENT_SET_NO":999,"REV_AT_EPOCH":98096,"BSTAR":2.0601615e-5,"MEAN_MOTION_DOT":-9.0e-8,"MEAN_MOTION_DDOT":0},{"OBJECT_NAME":"FENGYUN 1C DEB","OBJECT_ID":"1999-025ABV","EPOCH":"2026-03-14T12:21:41.188320","MEAN_MOTION":14.21332989,"ECCENTRICITY":0.00816806,"INCLINATION":98.5576,"RA_OF_ASC_NODE":264.7746,"ARG_OF_PERICENTER":292.9578,"MEAN_ANOMALY":121.6977,"EPHEMERIS_TYPE":0,"CLASSIFICATION_TYPE":"U","NORAD_CAT_ID":30358,"ELEMENT_SET_NO":999,"REV_AT_EPOCH":98221,"BSTAR":0.0015846656,"MEAN_MOTION_DOT":3.534e-5,"MEAN_MOTION_DDOT":0},{"OBJECT_NAME":"FENGYUN 1C DEB","OBJECT_ID":"1999-025ABW","EPOCH":"2026-03-14T07:24:10.080864","MEAN_MOTION":13.94738766,"ECCENTRICITY":0.01419281,"INCLINATION":101.6282,"RA_OF_ASC_NODE":287.5084,"ARG_OF_PERICENTER":114.5888,"MEAN_ANOMALY":247.0128,"EPHEMERIS_TYPE":0,"CLASSIFICATION_TYPE":"U","NORAD_CAT_ID":30359,"ELEMENT_SET_NO":999,"REV_AT_EPOCH":96345,"BSTAR":0.0022172746,"MEAN_MOTION_DOT":3.169e-5,"MEAN_MOTION_DDOT":0},{"OBJECT_NAME":"FENGYUN 1C DEB","OBJECT_ID":"1999-025ABX","EPOCH":"2026-03-13T15:52:38.475552","MEAN_MOTION":14.2719245,"ECCENTRICITY":0.00297946,"INCLINATION":98.7532,"RA_OF_ASC_NODE":147.3639,"ARG_OF_PERICENTER":237.5932,"MEAN_ANOMALY":277.0523,"EPHEMERIS_TYPE":0,"CLASSIFICATION_TYPE":"U","NORAD_CAT_ID":30360,"ELEMENT_SET_NO":999,"REV_AT_EPOCH":98721,"BSTAR":0.0013642281,"MEAN_MOTION_DOT":3.303e-5,"MEAN_MOTION_DDOT":0},{"OBJECT_NAME":"FENGYUN 1C DEB","OBJECT_ID":"1999-025ABY","EPOCH":"2026-03-14T12:52:47.722944","MEAN_MOTION":14.257921,"ECCENTRICITY":0.00670168,"INCLINATION":98.5585,"RA_OF_ASC_NODE":112.3503,"ARG_OF_PERICENTER":122.5744,"MEAN_ANOMALY":238.1931,"EPHEMERIS_TYPE":0,"CLASSIFICATION_TYPE":"U","NORAD_CAT_ID":30361,"ELEMENT_SET_NO":999,"REV_AT_EPOCH":98924,"BSTAR":0.0010586651,"MEAN_MOTION_DOT":2.534e-5,"MEAN_MOTION_DDOT":0},{"OBJECT_NAME":"FENGYUN 1C DEB","OBJECT_ID":"1999-025ABZ","EPOCH":"2026-03-13T06:35:00.019392","MEAN_MOTION":14.12639039,"ECCENTRICITY":0.00938891,"INCLINATION":99.0519,"RA_OF_ASC_NODE":0.9628,"ARG_OF_PERICENTER":86.1019,"MEAN_ANOMALY":275.088,"EPHEMERIS_TYPE":0,"CLASSIFICATION_TYPE":"U","NORAD_CAT_ID":30362,"ELEMENT_SET_NO":999,"REV_AT_EPOCH":97446,"BSTAR":0.0020375442,"MEAN_MOTION_DOT":3.892e-5,"MEAN_MOTION_DDOT":0},{"OBJECT_NAME":"FENGYUN 1C DEB","OBJECT_ID":"1999-025ACA","EPOCH":"2026-03-10T15:37:32.731392","MEAN_MOTION":14.17482943,"ECCENTRICITY":0.00821015,"INCLINATION":99.02,"RA_OF_ASC_NODE":147.1298,"ARG_OF_PERICENTER":148.5582,"MEAN_ANOMALY":212.0537,"EPHEMERIS_TYPE":0,"CLASSIFICATION_TYPE":"U","NORAD_CAT_ID":30363,"ELEMENT_SET_NO":999,"REV_AT_EPOCH":98069,"BSTAR":0.0015636671,"MEAN_MOTION_DOT":3.234e-5,"MEAN_MOTION_DDOT":0}]
