FENGYUN 1C DEB          
1 30345U 99025ABG 26073.15750079  .00006169  00000+0  18530-2 0  9992
2 30345  98.9118 141.6332 0014036 335.4696  24.5824 14.42996601990918
FENGYUN 1C DEB          
1 30346U 99025ABH 26073.51471446  .00007329  00000+0  25298-2 0  9999
2 30346  98.8020 176.9669 0056999 115.3813 306.2959 14.35193940987297
FENGYUN 1C DEB          
1 30347U 99025ABJ 26073.44888529  .00000306  00000+0  24132-3 0  9991
2 30347  98.3838 253.7091 0150797 138.1409 252.4430 13.92827391972373
FENGYUN 1C DEB          
1 30348U 99025ABK 26072.77543461  .00005463  00000+0  18827-2 0  9992
2 30348  98.8566 175.0071 0020114 111.1511  41.8717 14.36205726988405
FENGYUN 1C DEB          
1 30349U 99025ABL 26073.34236779  .00003730  00000+0  19923-2 0  9991
2 30349  98.5916  36.8598 0088106 109.8981  24.2765 14.11818705975235
FENGYUN 1C DEB          
1 30350U 99025ABM 26073.41583390  .00000868  00000+0  68584-3 0  9992
2 30350  98.1024 244.1069 0219181  56.1753 334.8732 13.83055412962494
FENGYUN 1C DEB          
1 30352U 99025ABP 26073.55801065  .00000191  00000+0  13793-3 0  9992
2 30352  98.7579  96.8804 0029405  60.6087 103.1147 14.07658822982023
FENGYUN 1C DEB          
1 30355U 99025ABS 26073.29135609  .00001651  00000+0  79757-3 0  9994
2 30355  98.5911  79.8125 0054487  45.7645 330.1177 14.19112234986498
FENGYUN 1C DEB          
1 30356U 99025ABT 26073.44950564  .00001561  00000+0  84370-3 0  9994
2 30356  98.6879  70.9741 0053096  28.5757 125.6329 14.13309117983166
FENGYUN 1C DEB          
1 30357U 99025ABU 26073.57028241 -.00000009  00000+0  20602-4 0  9993
2 30357  98.7963 103.1299 0050481  72.2316  80.8069 14.05311422980962
FENGYUN 1C DEB          
1 30358U 99025ABV 26073.51506005  .00003534  00000+0  15847-2 0  9995
2 30358  98.5576 264.7746 0081680 292.9578 121.6977 14.21332989982219
FENGYUN 1C DEB          
1 30359U 99025ABW 26073.30845001  .00003169  00000+0  22173-2 0  9999
2 30359 101.6282 287.5084 0141928 114.5888 247.0128 13.94738766963451
FENGYUN 1C DEB          
1 30360U 99025ABX 26072.66155643  .00003303  00000+0  13642-2 0  9996
2 30360  98.7532 147.3639 0029794 237.5932 277.0523 14.27192450987211
FENGYUN 1C DEB          
1 30361U 99025ABY 26073.53666346  .00002534  00000+0  10587-2 0  9991
2 30361  98.5585 112.3503 0067016 122.5744 238.1931 14.25792100989245
FENGYUN 1C DEB          
1 30362U 99025ABZ 26072.27430578  .00003892  00000+0  20375-2 0  9992
2 30362  99.0519   0.9628 0093889  86.1019 275.0880 14.12639039974464
FENGYUN 1C DEB          
1 30363U 99025ACA 26069.65107328  .00003234  00000+0  15637-2 0  9990
2 30363  99.0200 147.1298 0082101 148.5582 212.0537 14.17482943980699
